{
  "type": "FeatureCollection",
  "features": [
    {
      "type": "Feature",
      "properties": {
        "norad_id": 66639,
        "name": "STARLINK-35908",
        "group": "last-30-days",
        "lat": -51.84054767668388,
        "lon": 80.51158668358347,
        "alt_km": 427.5893463925104,
        "timestamp": "2025-12-19T20:42:58.811719+00:00",
        "meta_object_name": "STARLINK-35908",
        "meta_object_id": "2025-271Y",
        "meta_epoch": "2025-12-18T18:43:29.288640",
        "meta_mean_motion": 15.48774254,
        "meta_eccentricity": 0.0001437,
        "meta_inclination": 53.1596,
        "meta_ra_of_asc_node": 158.2632,
        "meta_arg_of_pericenter": 60.2516,
        "meta_mean_anomaly": 299.8636,
        "meta_ephemeris_type": 0,
        "meta_classification_type": "U",
        "meta_norad_cat_id": 66639,
        "meta_element_set_no": 999,
        "meta_rev_at_epoch": 514,
        "meta_bstar": -0.0048438706,
        "meta_mean_motion_dot": -0.00256344,
        "meta_mean_motion_ddot": 0,
        "tle_line1": "1 66639U 25271Y   25352.78020010 -.00256344  00000+0 -48439-2 0  9997",
        "tle_line2": "2 66639  53.1596 158.2632 0001437  60.2516 299.8636 15.48774254  5143"
      },
      "geometry": {
        "type": "Point",
        "coordinates": [
          80.51158668358347,
          -51.84054767668388
        ]
      }
    },
    {
      "type": "Feature",
      "properties": {
        "norad_id": 66640,
        "name": "STARLINK-35921",
        "group": "last-30-days",
        "lat": -34.89961899048605,
        "lon": 4.734668523918042,
        "alt_km": 451.5469207376409,
        "timestamp": "2025-12-19T20:42:58.811729+00:00",
        "meta_object_name": "STARLINK-35921",
        "meta_object_id": "2025-271Z",
        "meta_epoch": "2025-12-19T08:00:01.999872",
        "meta_mean_motion": 15.39566622,
        "meta_eccentricity": 8.205e-05,
        "meta_inclination": 53.1586,
        "meta_ra_of_asc_node": 155.6963,
        "meta_arg_of_pericenter": 104.7086,
        "meta_mean_anomaly": 62.6052,
        "meta_ephemeris_type": 0,
        "meta_classification_type": "U",
        "meta_norad_cat_id": 66640,
        "meta_element_set_no": 999,
        "meta_rev_at_epoch": 530,
        "meta_bstar": 0.0019451126,
        "meta_mean_motion_dot": 0.00078066,
        "meta_mean_motion_ddot": 0,
        "tle_line1": "1 66640U 25271Z   25353.33335648  .00078066  00000+0  19451-2 0  9990",
        "tle_line2": "2 66640  53.1586 155.6963 0000820 104.7086  62.6052 15.39566622  5307"
      },
      "geometry": {
        "type": "Point",
        "coordinates": [
          4.734668523918042,
          -34.89961899048605
        ]
      }
    },
    {
      "type": "Feature",
      "properties": {
        "norad_id": 66641,
        "name": "STARLINK-35923",
        "group": "last-30-days",
        "lat": -47.031005609688535,
        "lon": 99.46405344098474,
        "alt_km": 423.8167280492253,
        "timestamp": "2025-12-19T20:42:58.811739+00:00",
        "meta_object_name": "STARLINK-35923",
        "meta_object_id": "2025-271AA",
        "meta_epoch": "2025-12-19T07:04:03.503136",
        "meta_mean_motion": 15.49318318,
        "meta_eccentricity": 9.606e-05,
        "meta_inclination": 53.1588,
        "meta_ra_of_asc_node": 155.7834,
        "meta_arg_of_pericenter": 97.7063,
        "meta_mean_anomaly": 262.4056,
        "meta_ephemeris_type": 0,
        "meta_classification_type": "U",
        "meta_norad_cat_id": 66641,
        "meta_element_set_no": 999,
        "meta_rev_at_epoch": 522,
        "meta_bstar": 0.00096812964,
        "meta_mean_motion_dot": 0.00053784,
        "meta_mean_motion_ddot": 0,
        "tle_line1": "1 66641U 25271AA  25353.29448499  .00053784  00000+0  96813-3 0  9993",
        "tle_line2": "2 66641  53.1588 155.7834 0000960  97.7063 262.4056 15.49318318  5222"
      },
      "geometry": {
        "type": "Point",
        "coordinates": [
          99.46405344098474,
          -47.031005609688535
        ]
      }
    },
    {
      "type": "Feature",
      "properties": {
        "norad_id": 66642,
        "name": "STARLINK-35926",
        "group": "last-30-days",
        "lat": -47.882677951156616,
        "lon": 97.04333593202689,
        "alt_km": 424.15943575911024,
        "timestamp": "2025-12-19T20:42:58.811752+00:00",
        "meta_object_name": "STARLINK-35926",
        "meta_object_id": "2025-271AB",
        "meta_epoch": "2025-12-19T07:04:32.017728",
        "meta_mean_motion": 15.49313638,
        "meta_eccentricity": 0.0001869,
        "meta_inclination": 53.1588,
        "meta_ra_of_asc_node": 155.7852,
        "meta_arg_of_pericenter": 68.471,
        "meta_mean_anomaly": 291.6499,
        "meta_ephemeris_type": 0,
        "meta_classification_type": "U",
        "meta_norad_cat_id": 66642,
        "meta_element_set_no": 999,
        "meta_rev_at_epoch": 518,
        "meta_bstar": 0.0010278444,
        "meta_mean_motion_dot": 0.00057146,
        "meta_mean_motion_ddot": 0,
        "tle_line1": "1 66642U 25271AB  25353.29481502  .00057146  00000+0  10278-2 0  9992",
        "tle_line2": "2 66642  53.1588 155.7852 0001869  68.4710 291.6499 15.49313638  5186"
      },
      "geometry": {
        "type": "Point",
        "coordinates": [
          97.04333593202689,
          -47.882677951156616
        ]
      }
    },
    {
      "type": "Feature",
      "properties": {
        "norad_id": 66643,
        "name": "STARLINK-35918",
        "group": "last-30-days",
        "lat": -49.40753612003555,
        "lon": 92.03234262466923,
        "alt_km": 423.9779369573689,
        "timestamp": "2025-12-19T20:42:58.811762+00:00",
        "meta_object_name": "STARLINK-35918",
        "meta_object_id": "2025-271AC",
        "meta_epoch": "2025-12-18T20:15:17.256672",
        "meta_mean_motion": 15.49355287,
        "meta_eccentricity": 0.00012817,
        "meta_inclination": 53.1592,
        "meta_ra_of_asc_node": 157.9495,
        "meta_arg_of_pericenter": 86.0423,
        "meta_mean_anomaly": 274.0733,
        "meta_ephemeris_type": 0,
        "meta_classification_type": "U",
        "meta_norad_cat_id": 66643,
        "meta_element_set_no": 999,
        "meta_rev_at_epoch": 515,
        "meta_bstar": 0.0005250722,
        "meta_mean_motion_dot": 0.0002891,
        "meta_mean_motion_ddot": 0,
        "tle_line1": "1 66643U 25271AC  25352.84394973  .00028910  00000+0  52507-3 0  9997",
        "tle_line2": "2 66643  53.1592 157.9495 0001281  86.0423 274.0733 15.49355287  5153"
      },
      "geometry": {
        "type": "Point",
        "coordinates": [
          92.03234262466923,
          -49.40753612003555
        ]
      }
    },
    {
      "type": "Feature",
      "properties": {
        "norad_id": 66644,
        "name": "STARLINK-35938",
        "group": "last-30-days",
        "lat": -48.570992139207185,
        "lon": 94.9070426987172,
        "alt_km": 423.3225157078605,
        "timestamp": "2025-12-19T20:42:58.811786+00:00",
        "meta_object_name": "STARLINK-35938",
        "meta_object_id": "2025-271AD",
        "meta_epoch": "2025-12-18T20:14:46.464576",
        "meta_mean_motion": 15.49333178,
        "meta_eccentricity": 5.997e-05,
        "meta_inclination": 53.1591,
        "meta_ra_of_asc_node": 157.9473,
        "meta_arg_of_pericenter": 93.6054,
        "meta_mean_anomaly": 266.5024,
        "meta_ephemeris_type": 0,
        "meta_classification_type": "U",
        "meta_norad_cat_id": 66644,
        "meta_element_set_no": 999,
        "meta_rev_at_epoch": 515,
        "meta_bstar": 0.0013201346,
        "meta_mean_motion_dot": 0.00073731,
        "meta_mean_motion_ddot": 0,
        "tle_line1": "1 66644U 25271AD  25352.84359334  .00073731  00000+0  13201-2 0  9998",
        "tle_line2": "2 66644  53.1591 157.9473 0000599  93.6054 266.5024 15.49333178  5158"
      },
      "geometry": {
        "type": "Point",
        "coordinates": [
          94.9070426987172,
          -48.570992139207185
        ]
      }
    },
    {
      "type": "Feature",
      "properties": {
        "norad_id": 66645,
        "name": "SHENZHOU-22",
        "group": "last-30-days",
        "lat": -25.97028259955397,
        "lon": -173.07479561335302,
        "alt_km": 394.66892607862155,
        "timestamp": "2025-12-19T20:42:58.811798+00:00",
        "meta_object_name": "SHENZHOU-22",
        "meta_object_id": "2025-272A",
        "meta_epoch": "2025-12-19T05:56:22.256448",
        "meta_mean_motion": 15.59458428,
        "meta_eccentricity": 0.00077261,
        "meta_inclination": 41.4684,
        "meta_ra_of_asc_node": 337.1916,
        "meta_arg_of_pericenter": 88.0762,
        "meta_mean_anomaly": 272.0962,
        "meta_ephemeris_type": 0,
        "meta_classification_type": "U",
        "meta_norad_cat_id": 66645,
        "meta_element_set_no": 999,
        "meta_rev_at_epoch": 26357,
        "meta_bstar": 0.00024976186,
        "meta_mean_motion_dot": 0.00020088,
        "meta_mean_motion_ddot": 0,
        "tle_line1": "1 66645U 25272A   25353.24747982  .00020088  00000+0  24976-3 0  9994",
        "tle_line2": "2 66645  41.4684 337.1916 0007726  88.0762 272.0962 15.59458428263571"
      },
      "geometry": {
        "type": "Point",
        "coordinates": [
          -173.07479561335302,
          -25.97028259955397
        ]
      }
    }
  ]
}